[
  {
    "ORDINAL": "1",
    "COMMENT": "GENERATED VIA SPACETRACK.ORG API",
    "ORIGINATOR": "18 SPCS",
    "NORAD_CAT_ID": "26",
    "OBJECT_NAME": "DISCOVERER 5 CAPSULE",
    "OBJECT_TYPE": "PAYLOAD",
    "CLASSIFICATION_TYPE": "U",
    "INTLDES": "59005B",
    "EPOCH": "1961-02-10 06:57:42",
    "EPOCH_MICROSECONDS": "423839",
    "MEAN_MOTION": "16.22923515",
    "ECCENTRICITY": "0.0103758",
    "INCLINATION": "78.9399",
    "RA_OF_ASC_NODE": "321.1425",
    "ARG_OF_PERICENTER": "73.2921",
    "MEAN_ANOMALY": "287.2863",
    "EPHEMERIS_TYPE": "0",
    "ELEMENT_SET_NO": "999",
    "REV_AT_EPOCH": "5290",
    "BSTAR": "0",
    "MEAN_MOTION_DOT": "0.03920686",
    "MEAN_MOTION_DDOT": "0",
    "FILE": "33907",
    "TLE_LINE0": "0 DISCOVERER 5 CAPSULE",
    "TLE_LINE1": "1 00026U 59005  B 61041.29007435  .03920686 +00000-0 +00000-0 0  9993",
    "TLE_LINE2": "2 00026 078.9399 321.1425 0103758 073.2921 287.2863 16.22923515052909",
    "OBJECT_ID": "1959-005B",
    "OBJECT_NUMBER": "26",
    "SEMIMAJOR_AXIS": "6589.767",
    "PERIOD": "88.729",
    "APOGEE": "280.006",
    "PERIGEE": "143.258",
    "DECAYED": "1"
  },
  {
    "ORDINAL": "1",
    "COMMENT": "GENERATED VIA SPACETRACK.ORG API",
    "ORIGINATOR": "18 SPCS",
    "NORAD_CAT_ID": "28",
    "OBJECT_NAME": "THOR ABLE R/B",
    "OBJECT_TYPE": "ROCKET BODY",
    "CLASSIFICATION_TYPE": "U",
    "INTLDES": "60002A",
    "EPOCH": "1991-07-02 11:34:12",
    "EPOCH_MICROSECONDS": "753984",
    "MEAN_MOTION": "16.40114415",
    "ECCENTRICITY": "0.0003628",
    "INCLINATION": "48.3426",
    "RA_OF_ASC_NODE": "203.3369",
    "ARG_OF_PERICENTER": "333.1829",
    "MEAN_ANOMALY": "26.922",
    "EPHEMERIS_TYPE": "0",
    "ELEMENT_SET_NO": "999",
    "REV_AT_EPOCH": "67681",
    "BSTAR": "0.0014739",
    "MEAN_MOTION_DOT": "0.20810904",
    "MEAN_MOTION_DDOT": "0.000057222",
    "FILE": "34749",
    "TLE_LINE0": "0 THOR ABLE R/B",
    "TLE_LINE1": "1 00028U 60002  A 91183.48209206  .20810904 +57222-4 +14739-2 0  9993",
    "TLE_LINE2": "2 00028 048.3426 203.3369 0003628 333.1829 026.9220 16.40114415676819",
    "OBJECT_ID": "1960-002A",
    "OBJECT_NUMBER": "28",
    "SEMIMAJOR_AXIS": "6543.639",
    "PERIOD": "87.799",
    "APOGEE": "167.878",
    "PERIGEE": "163.130",
    "DECAYED": "1"
  },
  {
    "ORDINAL": "1",
    "COMMENT": "GENERATED VIA SPACETRACK.ORG API",
    "ORIGINATOR": "18 SPCS",
    "NORAD_CAT_ID": "29",
    "OBJECT_NAME": "TIROS 1",
    "OBJECT_TYPE": "PAYLOAD",
    "CLASSIFICATION_TYPE": "U",
    "INTLDES": "60002B",
    "EPOCH": "2023-02-02 12:59:25",
    "EPOCH_MICROSECONDS": "658016",
    "MEAN_MOTION": "14.74965934",
    "ECCENTRICITY": "0.0023665",
    "INCLINATION": "48.3795",
    "RA_OF_ASC_NODE": "96.4389",
    "ARG_OF_PERICENTER": "19.6743",
    "MEAN_ANOMALY": "340.5077",
    "EPHEMERIS_TYPE": "0",
    "ELEMENT_SET_NO": "999",
    "REV_AT_EPOCH": "36022",
    "BSTAR": "0.00011362",
    "MEAN_MOTION_DOT": "0.00000566",
    "MEAN_MOTION_DDOT": "0",
    "FILE": "3768366",
    "TLE_LINE0": "0 TIROS 1",
    "TLE_LINE1": "1 00029U 60002B   23033.54126919  .00000566  00000-0  11362-3 0  9990",
    "TLE_LINE2": "2 00029  48.3795  96.4389 0023665  19.6743 340.5077 14.74965934360221",
    "OBJECT_ID": "1960-002B",
    "OBJECT_NUMBER": "29",
    "SEMIMAJOR_AXIS": "7023.396",
    "PERIOD": "97.629",
    "APOGEE": "661.882",
    "PERIGEE": "628.641",
    "DECAYED": "0"
  },
  {
    "ORDINAL": "1",
    "COMMENT": "GENERATED VIA SPACETRACK.ORG API",
    "ORIGINATOR": "18 SPCS",
    "NORAD_CAT_ID": "30",
    "OBJECT_NAME": "THOR ABLESTAR R/B",
    "OBJECT_TYPE": "ROCKET BODY",
    "CLASSIFICATION_TYPE": "U",
    "INTLDES": "60003A",
    "EPOCH": "1961-08-16 14:24:53",
    "EPOCH_MICROSECONDS": "774496",
    "MEAN_MOTION": "16.29358349",
    "ECCENTRICITY": "0",
    "INCLINATION": "51.25",
    "RA_OF_ASC_NODE": "356.4892",
    "ARG_OF_PERICENTER": "331.9473",
    "MEAN_ANOMALY": "28.0526",
    "EPHEMERIS_TYPE": "0",
    "ELEMENT_SET_NO": "999",
    "REV_AT_EPOCH": "7590",
    "BSTAR": "0",
    "MEAN_MOTION_DOT": "0.02125614",
    "MEAN_MOTION_DDOT": "0",
    "FILE": "33907",
    "TLE_LINE0": "0 THOR ABLESTAR R/B",
    "TLE_LINE1": "1 00030U 60003  A 61228.60062239  .02125614 +00000-0 +00000-0 0  9990",
    "TLE_LINE2": "2 00030 051.2500 356.4892 0000000 331.9473 028.0526 16.29358349075909",
    "OBJECT_ID": "1960-003A",
    "OBJECT_NUMBER": "30",
    "SEMIMAJOR_AXIS": "6572.406",
    "PERIOD": "88.378",
    "APOGEE": "194.271",
    "PERIGEE": "194.271",
    "DECAYED": "1"
  },
  {
    "ORDINAL": "1",
    "COMMENT": "GENERATED VIA SPACETRACK.ORG API",
    "ORIGINATOR": "18 SPCS",
    "NORAD_CAT_ID": "31",
    "OBJECT_NAME": "TRANSIT 1B",
    "OBJECT_TYPE": "PAYLOAD",
    "CLASSIFICATION_TYPE": "U",
    "INTLDES": "60003B",
    "EPOCH": "1967-10-02 16:05:03",
    "EPOCH_MICROSECONDS": "114815",
    "MEAN_MOTION": "16.23394966",
    "ECCENTRICITY": "0.0014942",
    "INCLINATION": "51.2007",
    "RA_OF_ASC_NODE": "317.7772",
    "ARG_OF_PERICENTER": "349.5805",
    "MEAN_ANOMALY": "10.4801",
    "EPHEMERIS_TYPE": "0",
    "ELEMENT_SET_NO": "999",
    "REV_AT_EPOCH": "41828",
    "BSTAR": "0",
    "MEAN_MOTION_DOT": "0.01669365",
    "MEAN_MOTION_DDOT": "0",
    "FILE": "33915",
    "TLE_LINE0": "0 TRANSIT 1B",
    "TLE_LINE1": "1 00031U 60003  B 67275.67017494  .01669365 +00000-0 +00000-0 0  9994",
    "TLE_LINE2": "2 00031 051.2007 317.7772 0014942 349.5805 010.4801 16.23394966418285",
    "OBJECT_ID": "1960-003B",
    "OBJECT_NUMBER": "31",
    "SEMIMAJOR_AXIS": "6588.491",
    "PERIOD": "88.703",
    "APOGEE": "220.201",
    "PERIGEE": "200.512",
    "DECAYED": "1"
  },
  {
    "ORDINAL": "1",
    "COMMENT": "GENERATED VIA SPACETRACK.ORG API",
    "ORIGINATOR": "18 SPCS",
    "NORAD_CAT_ID": "32",
    "OBJECT_NAME": "DISCOVERER 11",
    "OBJECT_TYPE": "PAYLOAD",
    "CLASSIFICATION_TYPE": "U",
    "INTLDES": "60004A",
    "EPOCH": "1960-04-24 16:52:43",
    "EPOCH_MICROSECONDS": "658112",
    "MEAN_MOTION": "16.05408684",
    "ECCENTRICITY": "0.017693",
    "INCLINATION": "80.0999",
    "RA_OF_ASC_NODE": "205.8192",
    "ARG_OF_PERICENTER": "121.6216",
    "MEAN_ANOMALY": "239.2608",
    "EPHEMERIS_TYPE": "0",
    "ELEMENT_SET_NO": "999",
    "REV_AT_EPOCH": "140",
    "BSTAR": "0",
    "MEAN_MOTION_DOT": "0.04582881",
    "MEAN_MOTION_DDOT": "0",
    "FILE": "33906",
    "TLE_LINE0": "0 DISCOVERER 11",
    "TLE_LINE1": "1 00032U 60004  A 60115.70328308  .04582881 +00000-0 +00000-0 0  9995",
    "TLE_LINE2": "2 00032 080.0999 205.8192 0176930 121.6216 239.2608 16.05408684001401",
    "OBJECT_ID": "1960-004A",
    "OBJECT_NUMBER": "32",
    "SEMIMAJOR_AXIS": "6637.610",
    "PERIOD": "89.697",
    "APOGEE": "376.914",
    "PERIGEE": "142.036",
    "DECAYED": "1"
  },
  {
    "ORDINAL": "1",
    "COMMENT": "GENERATED VIA SPACETRACK.ORG API",
    "ORIGINATOR": "18 SPCS",
    "NORAD_CAT_ID": "33",
    "OBJECT_NAME": "THOR ABLESTAR DEB",
    "OBJECT_TYPE": "DEBRIS",
    "CLASSIFICATION_TYPE": "U",
    "INTLDES": "60003C",
    "EPOCH": "1960-10-06 07:59:06",
    "EPOCH_MICROSECONDS": "496512",
    "MEAN_MOTION": "15.38343354",
    "ECCENTRICITY": "0.0242757",
    "INCLINATION": "51.2879",
    "RA_OF_ASC_NODE": "136.0668",
    "ARG_OF_PERICENTER": "196.78",
    "MEAN_ANOMALY": "163.61",
    "EPHEMERIS_TYPE": "0",
    "ELEMENT_SET_NO": "999",
    "REV_AT_EPOCH": "2700",
    "BSTAR": "0",
    "MEAN_MOTION_DOT": "0.00001932",
    "MEAN_MOTION_DDOT": "0",
    "FILE": "33906",
    "TLE_LINE0": "0 THOR ABLESTAR DEB",
    "TLE_LINE1": "1 00033U 60003  C 60280.33271408  .00001932 +00000-0 +00000-0 0  9994",
    "TLE_LINE2": "2 00033 051.2879 136.0668 0242757 196.7800 163.6100 15.38343354027003",
    "OBJECT_ID": "1960-003C",
    "OBJECT_NUMBER": "33",
    "SEMIMAJOR_AXIS": "6829.149",
    "PERIOD": "93.607",
    "APOGEE": "616.797",
    "PERIGEE": "285.232",
    "DECAYED": "1"
  },
  {
    "ORDINAL": "1",
    "COMMENT": "GENERATED VIA SPACETRACK.ORG API",
    "ORIGINATOR": "18 SPCS",
    "NORAD_CAT_ID": "34",
    "OBJECT_NAME": "SPUTNIK 4",
    "OBJECT_TYPE": "PAYLOAD",
    "CLASSIFICATION_TYPE": "U",
    "INTLDES": "60005A",
    "EPOCH": "1962-09-04 09:58:36",
    "EPOCH_MICROSECONDS": "773760",
    "MEAN_MOTION": "16.39651632",
    "ECCENTRICITY": "0",
    "INCLINATION": "64.9604",
    "RA_OF_ASC_NODE": "254.3998",
    "ARG_OF_PERICENTER": "66.3194",
    "MEAN_ANOMALY": "286.6963",
    "EPHEMERIS_TYPE": "0",
    "ELEMENT_SET_NO": "999",
    "REV_AT_EPOCH": "13153",
    "BSTAR": "0",
    "MEAN_MOTION_DOT": "0.02051518",
    "MEAN_MOTION_DDOT": "0",
    "FILE": "33908",
    "TLE_LINE0": "0 SPUTNIK 4",
    "TLE_LINE1": "1 00034U 60005  A 62247.41570340  .02051518 +00000-0 +00000-0 0  9995",
    "TLE_LINE2": "2 00034 064.9604 254.3998 0000000 066.3194 286.6963 16.39651632131532",
    "OBJECT_ID": "1960-005A",
    "OBJECT_NUMBER": "34",
    "SEMIMAJOR_AXIS": "6544.871",
    "PERIOD": "87.824",
    "APOGEE": "166.736",
    "PERIGEE": "166.736",
    "DECAYED": "1"
  }
]
